{"type": "FeatureCollection", "features": [{"type": "Feature", "geometry": {"type": "Polygon", "coordinates": [[[6.619, 53.132], [6.588, 53.146], [6.581, 53.164], [6.564, 53.158], [6.548, 53.181], [6.53, 53.195], [6.513, 53.197], [6.486, 53.204], [6.463, 53.2], [6.48, 53.246], [6.508, 53.258], [6.554, 53.262], [6.619, 53.249], [6.626, 53.266], [6.654, 53.309], [6.62, 53.314], [6.596, 53.347], [6.626, 53.351], [6.626, 53.361], [6.664, 53.367], [6.697, 53.363], [6.748, 53.395], [6.779, 53.411], [6.792, 53.404], [6.844, 53.422], [6.874, 53.408], [6.888, 53.396], [6.897, 53.356], [6.934, 53.333], [6.968, 53.319], [7.027, 53.302], [7.084, 53.298], [7.078, 53.267], [7.093, 53.257], [7.068, 53.242], [7.04, 53.26], [7.022, 53.253], [7.013, 53.267], [6.997, 53.267], [6.952, 53.256], [6.929, 53.237], [6.911, 53.243], [6.929, 53.213], [6.904, 53.167], [6.929, 53.169], [6.95, 53.159], [6.965, 53.111], [6.988, 53.116], [7.03, 53.115], [7.043, 53.102], [7.015, 53.072], [7.034, 53.065], [7.077, 53.064], [7.086, 53.042], [7.08, 53.03], [7.1, 53.016], [7.072, 53.004], [7.07, 52.953], [7.063, 52.931], [7.036, 52.929], [7.027, 52.919], [7.016, 52.925], [6.936, 52.993], [6.861, 53.041], [6.814, 53.071], [6.777, 53.095], [6.737, 53.119], [6.695, 53.121], [6.635, 53.106], [6.619, 53.132]]]}, "properties": {"statnaam": "Gronings: Veenkoloniaals", "lang": "gos-VE"}}, {"type": "Feature", "geometry": {"type": "Polygon", "coordinates": [[[6.428, 52.972], [6.393, 52.933], [6.369, 52.922], [6.333, 52.906], [6.303, 52.925], [6.257, 52.928], [6.247, 52.923], [6.207, 52.891], [6.12, 52.854], [6.031, 52.815], [6.025, 52.823], [5.997, 52.817], [5.972, 52.842], [5.93, 52.835], [5.924, 52.824], [5.898, 52.808], [5.876, 52.801], [5.844, 52.805], [5.82, 52.817], [5.857, 52.871], [5.886, 52.894], [5.911, 52.898], [5.938, 52.912], [5.959, 52.927], [6.002, 52.934], [6.038, 52.918], [6.085, 52.936], [6.128, 52.953], [6.159, 52.976], [6.202, 52.99], [6.205, 53.038], [6.213, 53.036], [6.281, 53.058], [6.281, 53.064], [6.332, 53.075], [6.368, 53.067], [6.363, 53.034], [6.413, 52.986], [6.428, 52.972]]]}, "properties": {"statnaam": "Stellingwerfs", "lang": "stl"}}, {"type": "Feature", "geometry": {"type": "Polygon", "coordinates": [[[6.504, 53.016], [6.496, 53.031], [6.505, 53.046], [6.524, 53.046], [6.547, 53.035], [6.555, 53.059], [6.6, 53.061], [6.608, 53.048], [6.604, 53.033], [6.631, 53.026], [6.649, 53.026], [6.643, 53.047], [6.672, 53.065], [6.699, 53.065], [6.748, 53.081], [6.777, 53.095], [6.814, 53.071], [6.861, 53.041], [6.936, 52.993], [6.839, 52.978], [6.789, 52.963], [6.728, 52.955], [6.725, 52.937], [6.736, 52.879], [6.715, 52.868], [6.728, 52.854], [6.704, 52.847], [6.708, 52.836], [6.69, 52.823], [6.692, 52.811], [6.675, 52.797], [6.661, 52.801], [6.587, 52.736], [6.558, 52.745], [6.566, 52.766], [6.513, 52.762], [6.491, 52.771], [6.492, 52.793], [6.455, 52.801], [6.46, 52.814], [6.48, 52.837], [6.451, 52.85], [6.431, 52.85], [6.431, 52.868], [6.42, 52.882], [6.36, 52.895], [6.386, 52.916], [6.369, 52.922], [6.393, 52.933], [6.428, 52.972], [6.413, 52.986], [6.488, 53.005], [6.504, 53.016]]]}, "properties": {"statnaam": "Drents: Midden-Drents", "lang": "drt-MD"}}, {"type": "Feature", "geometry": {"type": "Polygon", "coordinates": [[[6.777, 52.652], [6.742, 52.645], [6.71, 52.628], [6.708, 52.649], [6.629, 52.67], [6.63, 52.713], [6.596, 52.713], [6.587, 52.736], [6.661, 52.801], [6.675, 52.797], [6.692, 52.811], [6.69, 52.823], [6.708, 52.836], [6.704, 52.847], [6.728, 52.854], [6.715, 52.868], [6.736, 52.879], [6.725, 52.937], [6.728, 52.955], [6.789, 52.963], [6.839, 52.978], [6.936, 52.993], [7.016, 52.925], [7.027, 52.919], [7.046, 52.916], [7.015, 52.873], [7.04, 52.873], [7.072, 52.845], [7.093, 52.838], [7.072, 52.81], [7.064, 52.723], [7.055, 52.644], [7.042, 52.633], [6.975, 52.646], [6.939, 52.638], [6.919, 52.64], [6.897, 52.651], [6.862, 52.65], [6.822, 52.648], [6.777, 52.652]]]}, "properties": {"statnaam": "Drents: Zuudoost-Zaand", "lang": "drt-ZO"}}, {"type": "Feature", "geometry": {"type": "Polygon", "coordinates": [[[6.63, 52.713], [6.629, 52.67], [6.615, 52.674], [6.553, 52.666], [6.529, 52.655], [6.514, 52.646], [6.519, 52.614], [6.47, 52.625], [6.453, 52.614], [6.434, 52.626], [6.384, 52.612], [6.364, 52.643], [6.328, 52.659], [6.323, 52.67], [6.298, 52.666], [6.266, 52.668], [6.221, 52.683], [6.202, 52.685], [6.183, 52.675], [6.163, 52.68], [6.159, 52.692], [6.12, 52.75], [6.156, 52.763], [6.173, 52.773], [6.202, 52.794], [6.137, 52.839], [6.12, 52.854], [6.207, 52.891], [6.247, 52.923], [6.257, 52.928], [6.303, 52.925], [6.333, 52.906], [6.369, 52.922], [6.386, 52.916], [6.36, 52.895], [6.42, 52.882], [6.431, 52.868], [6.431, 52.85], [6.451, 52.85], [6.48, 52.837], [6.46, 52.814], [6.455, 52.801], [6.492, 52.793], [6.491, 52.771], [6.513, 52.762], [6.566, 52.766], [6.558, 52.745], [6.587, 52.736], [6.596, 52.713], [6.63, 52.713]]]}, "properties": {"statnaam": "Drents: Zuudwest-Zuud", "lang": "drt-ZW"}}, {"type": "Feature", "geometry": {"type": "Polygon", "coordinates": [[[7.072, 52.352], [7.056, 52.338], [7.048, 52.32], [7.026, 52.292], [7.028, 52.278], [7.042, 52.256], [7.066, 52.241], [7.061, 52.235], [7.019, 52.225], [7.003, 52.229], [6.981, 52.221], [6.951, 52.181], [6.916, 52.178], [6.89, 52.161], [6.873, 52.133], [6.855, 52.12], [6.761, 52.119], [6.716, 52.118], [6.663, 52.13], [6.674, 52.143], [6.671, 52.166], [6.645, 52.174], [6.612, 52.163], [6.59, 52.182], [6.555, 52.177], [6.518, 52.181], [6.492, 52.177], [6.479, 52.183], [6.429, 52.223], [6.416, 52.242], [6.382, 52.246], [6.377, 52.259], [6.329, 52.281], [6.327, 52.302], [6.356, 52.318], [6.334, 52.351], [6.343, 52.37], [6.357, 52.377], [6.389, 52.38], [6.405, 52.416], [6.39, 52.428], [6.429, 52.439], [6.45, 52.461], [6.464, 52.475], [6.504, 52.482], [6.505, 52.491], [6.554, 52.488], [6.595, 52.48], [6.611, 52.467], [6.642, 52.471], [6.669, 52.495], [6.698, 52.486], [6.718, 52.478], [6.775, 52.46], [6.854, 52.46], [6.862, 52.451], [6.889, 52.447], [6.906, 52.442], [6.942, 52.435], [6.947, 52.437], [6.961, 52.444], [6.978, 52.466], [6.994, 52.465], [7.011, 52.429], [7.035, 52.404], [7.059, 52.399], [7.072, 52.373], [7.072, 52.352]]]}, "properties": {"statnaam": "Twents", "lang": "twd"}}, {"type": "Feature", "geometry": {"type": "Polygon", "coordinates": [[[5.983, 52.658], [5.934, 52.676], [5.965, 52.694], [5.943, 52.715], [5.922, 52.751], [5.88, 52.773], [5.85, 52.785], [5.819, 52.788], [5.795, 52.807], [5.82, 52.817], [5.844, 52.805], [5.876, 52.801], [5.898, 52.808], [5.924, 52.824], [5.93, 52.835], [5.972, 52.842], [5.997, 52.817], [6.025, 52.823], [6.031, 52.815], [6.12, 52.854], [6.137, 52.839], [6.202, 52.794], [6.173, 52.773], [6.156, 52.763], [6.12, 52.75], [6.159, 52.692], [6.163, 52.68], [6.183, 52.675], [6.202, 52.685], [6.221, 52.683], [6.266, 52.668], [6.298, 52.666], [6.323, 52.67], [6.328, 52.659], [6.364, 52.643], [6.384, 52.612], [6.434, 52.626], [6.453, 52.614], [6.47, 52.625], [6.519, 52.614], [6.514, 52.646], [6.529, 52.655], [6.553, 52.666], [6.615, 52.674], [6.629, 52.67], [6.708, 52.649], [6.71, 52.628], [6.727, 52.615], [6.719, 52.589], [6.767, 52.564], [6.752, 52.559], [6.727, 52.563], [6.716, 52.549], [6.681, 52.553], [6.705, 52.521], [6.698, 52.486], [6.669, 52.495], [6.642, 52.471], [6.611, 52.467], [6.595, 52.48], [6.554, 52.488], [6.505, 52.491], [6.504, 52.482], [6.464, 52.475], [6.45, 52.461], [6.429, 52.439], [6.39, 52.428], [6.405, 52.416], [6.389, 52.38], [6.357, 52.377], [6.343, 52.37], [6.334, 52.351], [6.356, 52.318], [6.327, 52.302], [6.329, 52.281], [6.377, 52.259], [6.382, 52.246], [6.338, 52.236], [6.339, 52.227], [6.217, 52.226], [6.166, 52.231], [6.148, 52.228], [6.124, 52.251], [6.13, 52.261], [6.112, 52.278], [6.101, 52.301], [6.084, 52.302], [6.074, 52.331], [6.078, 52.364], [6.082, 52.372], [6.124, 52.381], [6.13, 52.399], [6.111, 52.408], [6.119, 52.433], [6.11, 52.441], [6.104, 52.454], [6.102, 52.466], [6.071, 52.482], [6.054, 52.5], [6.028, 52.51], [6.001, 52.5], [5.965, 52.476], [5.951, 52.484], [5.926, 52.474], [5.91, 52.497], [5.887, 52.517], [5.866, 52.519], [5.864, 52.52], [5.863, 52.521], [5.857, 52.544], [5.858, 52.546], [5.829, 52.587], [5.843, 52.611], [5.896, 52.618], [5.931, 52.614], [5.962, 52.624], [5.988, 52.624], [6.018, 52.643], [5.983, 52.658]]]}, "properties": {"statnaam": "Sallands", "lang": "sdz"}}, {"type": "Feature", "geometry": {"type": "MultiPolygon", "coordinates": [[[[5.63, 52.638], [5.593, 52.663], [5.593, 52.676], [5.61, 52.68], [5.642, 52.678], [5.655, 52.666], [5.649, 52.65], [5.63, 52.638]]], [[[5.331, 52.274], [5.357, 52.27], [5.404, 52.247], [5.396, 52.219], [5.393, 52.206], [5.331, 52.215], [5.336, 52.228], [5.312, 52.233], [5.311, 52.246], [5.324, 52.253], [5.331, 52.274]]]]}, "properties": {"statnaam": "???"}}, {"type": "Feature", "geometry": {"type": "Polygon", "coordinates": [[[6.429, 51.865], [6.391, 51.873], [6.388, 51.862], [6.408, 51.854], [6.407, 51.828], [6.363, 51.835], [6.345, 51.851], [6.306, 51.849], [6.299, 51.868], [6.28, 51.874], [6.262, 51.868], [6.215, 51.868], [6.184, 51.883], [6.191, 51.892], [6.168, 51.901], [6.091, 51.939], [6.09, 51.968], [6.105, 51.967], [6.145, 51.981], [6.16, 51.981], [6.159, 52.0], [6.161, 52.014], [6.177, 52.019], [6.176, 52.039], [6.152, 52.042], [6.122, 52.035], [6.116, 52.049], [6.137, 52.059], [6.103, 52.078], [6.068, 52.088], [6.024, 52.067], [6.006, 52.066], [6.009, 52.074], [6.034, 52.098], [6.052, 52.124], [6.07, 52.131], [6.076, 52.144], [6.106, 52.152], [6.16, 52.162], [6.185, 52.161], [6.193, 52.17], [6.194, 52.176], [6.157, 52.198], [6.184, 52.204], [6.189, 52.217], [6.166, 52.231], [6.217, 52.226], [6.339, 52.227], [6.338, 52.236], [6.382, 52.246], [6.416, 52.242], [6.429, 52.223], [6.479, 52.183], [6.492, 52.177], [6.518, 52.181], [6.555, 52.177], [6.59, 52.182], [6.612, 52.163], [6.645, 52.174], [6.671, 52.166], [6.674, 52.143], [6.663, 52.13], [6.716, 52.118], [6.761, 52.119], [6.751, 52.085], [6.735, 52.075], [6.696, 52.07], [6.688, 52.044], [6.688, 52.04], [6.714, 52.04], [6.753, 52.028], [6.811, 51.998], [6.827, 51.994], [6.829, 51.964], [6.799, 51.959], [6.794, 51.935], [6.77, 51.916], [6.722, 51.896], [6.693, 51.915], [6.669, 51.914], [6.638, 51.904], [6.586, 51.894], [6.556, 51.882], [6.501, 51.868], [6.464, 51.855], [6.451, 51.865], [6.429, 51.865]]]}, "properties": {"statnaam": "Achterhoeks", "lang": "act"}}, {"type": "Feature", "geometry": {"type": "Polygon", "coordinates": [[[5.946, 52.078], [5.91, 52.062], [5.899, 52.05], [5.85, 52.052], [5.813, 52.024], [5.745, 52.02], [5.724, 52.001], [5.675, 51.991], [5.606, 51.994], [5.589, 52.009], [5.587, 52.031], [5.558, 52.049], [5.563, 52.078], [5.55, 52.105], [5.532, 52.102], [5.537, 52.089], [5.523, 52.078], [5.496, 52.072], [5.484, 52.07], [5.459, 52.08], [5.486, 52.094], [5.494, 52.111], [5.486, 52.115], [5.498, 52.13], [5.499, 52.147], [5.481, 52.151], [5.48, 52.166], [5.44, 52.171], [5.439, 52.202], [5.41, 52.219], [5.396, 52.219], [5.404, 52.247], [5.454, 52.254], [5.47, 52.263], [5.471, 52.264], [5.479, 52.258], [5.506, 52.265], [5.527, 52.264], [5.548, 52.292], [5.576, 52.327], [5.611, 52.346], [5.614, 52.362], [5.615, 52.363], [5.653, 52.365], [5.679, 52.379], [5.7, 52.381], [5.757, 52.407], [5.811, 52.436], [5.817, 52.457], [5.842, 52.471], [5.866, 52.519], [5.887, 52.517], [5.91, 52.497], [5.926, 52.474], [5.951, 52.484], [5.965, 52.476], [6.001, 52.5], [6.028, 52.51], [6.054, 52.5], [6.071, 52.482], [6.102, 52.466], [6.104, 52.454], [6.11, 52.441], [6.119, 52.433], [6.111, 52.408], [6.13, 52.399], [6.124, 52.381], [6.082, 52.372], [6.078, 52.364], [6.074, 52.331], [6.084, 52.302], [6.101, 52.301], [6.112, 52.278], [6.13, 52.261], [6.124, 52.251], [6.148, 52.228], [6.166, 52.231], [6.189, 52.217], [6.184, 52.204], [6.157, 52.198], [6.194, 52.176], [6.193, 52.17], [6.185, 52.161], [6.16, 52.162], [6.106, 52.152], [6.076, 52.144], [6.07, 52.131], [6.052, 52.124], [6.034, 52.098], [6.009, 52.074], [5.99, 52.079], [5.956, 52.073], [5.946, 52.078]]]}, "properties": {"statnaam": "Veluws", "lang": "vel"}}, {"type": "Feature", "geometry": {"type": "Polygon", "coordinates": [[[6.496, 53.031], [6.504, 53.016], [6.488, 53.005], [6.413, 52.986], [6.363, 53.034], [6.368, 53.067], [6.332, 53.075], [6.305, 53.081], [6.315, 53.094], [6.344, 53.087], [6.383, 53.15], [6.408, 53.178], [6.443, 53.188], [6.463, 53.2], [6.486, 53.204], [6.513, 53.197], [6.53, 53.195], [6.548, 53.181], [6.564, 53.158], [6.581, 53.164], [6.588, 53.146], [6.619, 53.132], [6.635, 53.106], [6.695, 53.121], [6.737, 53.119], [6.777, 53.095], [6.748, 53.081], [6.699, 53.065], [6.672, 53.065], [6.643, 53.047], [6.649, 53.026], [6.631, 53.026], [6.604, 53.033], [6.608, 53.048], [6.6, 53.061], [6.555, 53.059], [6.547, 53.035], [6.524, 53.046], [6.505, 53.046], [6.496, 53.031]]]}, "properties": {"statnaam": "Drents: Noordenvelds", "lang": "drt-NV"}}, {"type": "Feature", "geometry": {"type": "Polygon", "coordinates": [[[7.156, 53.243], [7.206, 53.236], [7.217, 53.215], [7.218, 53.198], [7.189, 53.155], [7.179, 53.139], [7.183, 53.122], [7.203, 53.113], [7.199, 53.081], [7.213, 53.011], [7.182, 52.942], [7.104, 52.864], [7.087, 52.85], [7.093, 52.838], [7.072, 52.845], [7.04, 52.873], [7.015, 52.873], [7.046, 52.916], [7.027, 52.919], [7.036, 52.929], [7.063, 52.931], [7.07, 52.953], [7.072, 53.004], [7.1, 53.016], [7.08, 53.03], [7.086, 53.042], [7.077, 53.064], [7.034, 53.065], [7.015, 53.072], [7.043, 53.102], [7.03, 53.115], [6.988, 53.116], [6.965, 53.111], [6.95, 53.159], [6.929, 53.169], [6.904, 53.167], [6.929, 53.213], [6.911, 53.243], [6.929, 53.237], [6.952, 53.256], [6.997, 53.267], [7.013, 53.267], [7.022, 53.253], [7.04, 53.26], [7.068, 53.242], [7.093, 53.257], [7.156, 53.243]]]}, "properties": {"statnaam": "Gronings: Westerwolds en Oldambtsters", "lang": "gos-WO"}}, {"type": "Feature", "geometry": {"type": "MultiPolygon", "coordinates": [[[[6.874, 53.408], [6.844, 53.422], [6.792, 53.404], [6.779, 53.411], [6.748, 53.395], [6.697, 53.363], [6.664, 53.367], [6.626, 53.361], [6.626, 53.351], [6.596, 53.347], [6.62, 53.314], [6.654, 53.309], [6.626, 53.266], [6.619, 53.249], [6.554, 53.262], [6.508, 53.258], [6.504, 53.295], [6.478, 53.324], [6.441, 53.317], [6.431, 53.328], [6.399, 53.319], [6.367, 53.322], [6.331, 53.315], [6.292, 53.338], [6.292, 53.34], [6.274, 53.346], [6.25, 53.349], [6.232, 53.367], [6.218, 53.364], [6.185, 53.403], [6.191, 53.411], [6.199, 53.408], [6.244, 53.415], [6.261, 53.414], [6.298, 53.4], [6.306, 53.393], [6.368, 53.416], [6.415, 53.422], [6.538, 53.431], [6.547, 53.429], [6.599, 53.438], [6.634, 53.451], [6.696, 53.462], [6.746, 53.466], [6.798, 53.455], [6.814, 53.463], [6.865, 53.45], [6.882, 53.44], [6.874, 53.408]]], [[[6.518, 53.537], [6.486, 53.527], [6.461, 53.539], [6.487, 53.554], [6.505, 53.551], [6.518, 53.537]]]]}, "properties": {"statnaam": "Gronings: Hogelandsters", "lang": "gos-HO"}}, {"type": "Feature", "geometry": {"type": "Polygon", "coordinates": [[[6.292, 53.338], [6.331, 53.315], [6.367, 53.322], [6.399, 53.319], [6.431, 53.328], [6.441, 53.317], [6.478, 53.324], [6.504, 53.295], [6.508, 53.258], [6.48, 53.246], [6.463, 53.2], [6.443, 53.188], [6.408, 53.178], [6.383, 53.15], [6.344, 53.087], [6.315, 53.094], [6.291, 53.1], [6.262, 53.114], [6.206, 53.115], [6.186, 53.129], [6.175, 53.136], [6.177, 53.16], [6.2, 53.195], [6.23, 53.218], [6.218, 53.242], [6.232, 53.257], [6.247, 53.268], [6.254, 53.289], [6.279, 53.303], [6.294, 53.308], [6.281, 53.313], [6.287, 53.341], [6.292, 53.338]]]}, "properties": {"statnaam": "Gronings: Westerkwartiers", "lang": "gos-WE"}}]}